[{"OBJECT_NAME":"OBJECT D","OBJECT_ID":"2024-085D","EPOCH":"2026-03-09T22:53:13.410816","MEAN_MOTION":15.33413141,"ECCENTRICITY":0.00152451,"INCLINATION":97.3312,"RA_OF_ASC_NODE":145.3953,"ARG_OF_PERICENTER":54.9672,"MEAN_ANOMALY":305.2998,"EPHEMERIS_TYPE":0,"CLASSIFICATION_TYPE":"U","NORAD_CAT_ID":59680,"ELEMENT_SET_NO":999,"REV_AT_EPOCH":10244,"BSTAR":0.00049264705,"MEAN_MOTION_DOT":0.00015903,"MEAN_MOTION_DDOT":0},{"OBJECT_NAME":"STARLINK-35621","OBJECT_ID":"2025-240L","EPOCH":"2026-03-09T10:04:01.217856","MEAN_MOTION":15.30193577,"ECCENTRICITY":0.0001578,"INCLINATION":53.1595,"RA_OF_ASC_NODE":64.3121,"ARG_OF_PERICENTER":94.7303,"MEAN_ANOMALY":265.3878,"EPHEMERIS_TYPE":0,"CLASSIFICATION_TYPE":"U","NORAD_CAT_ID":66156,"ELEMENT_SET_NO":999,"REV_AT_EPOCH":2194,"BSTAR":0.0008928967,"MEAN_MOTION_DOT":0.00026174,"MEAN_MOTION_DDOT":0}]
